{
  "type": "FeatureCollection",
  "features": [
    {
      "type": "Feature",
      "properties": {
        "norad_id": 33924,
        "name": "COSMOS 2251 DEB",
        "group": "cosmos-2251-debris",
        "lat": -69.50498365195477,
        "lon": -124.38105381904724,
        "alt_km": 844.4441752030534,
        "timestamp": "2025-12-02T19:35:50.947549+00:00",
        "meta_object_name": "COSMOS 2251 DEB",
        "meta_object_id": "1993-036ED",
        "meta_epoch": "2025-12-02T07:30:14.685408",
        "meta_mean_motion": 13.50189034,
        "meta_eccentricity": 0.040407,
        "meta_inclination": 73.9131,
        "meta_ra_of_asc_node": 286.9617,
        "meta_arg_of_pericenter": 324.2468,
        "meta_mean_anomaly": 33.2181,
        "meta_ephemeris_type": 0,
        "meta_classification_type": "U",
        "meta_norad_cat_id": 33924,
        "meta_element_set_no": 999,
        "meta_rev_at_epoch": 82598,
        "meta_bstar": 0.0015287,
        "meta_mean_motion_dot": 1.597e-05,
        "meta_mean_motion_ddot": 0,
        "tle_line1": "1 33924U 93036ED  25336.31266997  .00001597  00000+0  15287-2 0  9990",
        "tle_line2": "2 33924  73.9131 286.9617 0404070 324.2468  33.2181 13.50189034825984"
      },
      "geometry": {
        "type": "Point",
        "coordinates": [
          -124.38105381904724,
          -69.50498365195477
        ]
      }
    },
    {
      "type": "Feature",
      "properties": {
        "norad_id": 33928,
        "name": "COSMOS 2251 DEB",
        "group": "cosmos-2251-debris",
        "lat": -28.571184472417606,
        "lon": 62.21332644631072,
        "alt_km": 705.1429628382621,
        "timestamp": "2025-12-02T19:35:50.947559+00:00",
        "meta_object_name": "COSMOS 2251 DEB",
        "meta_object_id": "1993-036EH",
        "meta_epoch": "2025-12-02T08:07:18.091776",
        "meta_mean_motion": 14.47372635,
        "meta_eccentricity": 0.0060958,
        "meta_inclination": 73.9259,
        "meta_ra_of_asc_node": 72.1469,
        "meta_arg_of_pericenter": 8.5688,
        "meta_mean_anomaly": 351.6495,
        "meta_ephemeris_type": 0,
        "meta_classification_type": "U",
        "meta_norad_cat_id": 33928,
        "meta_element_set_no": 999,
        "meta_rev_at_epoch": 88494,
        "meta_bstar": 0.0003325,
        "meta_mean_motion_dot": 1.218e-05,
        "meta_mean_motion_ddot": 0,
        "tle_line1": "1 33928U 93036EH  25336.33840384  .00001218  00000+0  33250-3 0  9995",
        "tle_line2": "2 33928  73.9259  72.1469 0060958   8.5688 351.6495 14.47372635884942"
      },
      "geometry": {
        "type": "Point",
        "coordinates": [
          62.21332644631072,
          -28.571184472417606
        ]
      }
    },
    {
      "type": "Feature",
      "properties": {
        "norad_id": 33932,
        "name": "COSMOS 2251 DEB",
        "group": "cosmos-2251-debris",
        "lat": 53.86378495688151,
        "lon": -2.695390489543712,
        "alt_km": 732.5015776046303,
        "timestamp": "2025-12-02T19:35:50.947570+00:00",
        "meta_object_name": "COSMOS 2251 DEB",
        "meta_object_id": "1993-036EM",
        "meta_epoch": "2025-12-02T10:59:25.043136",
        "meta_mean_motion": 14.38709113,
        "meta_eccentricity": 0.0034838,
        "meta_inclination": 74.0335,
        "meta_ra_of_asc_node": 334.881,
        "meta_arg_of_pericenter": 54.099,
        "meta_mean_anomaly": 306.3389,
        "meta_ephemeris_type": 0,
        "meta_classification_type": "U",
        "meta_norad_cat_id": 33932,
        "meta_element_set_no": 999,
        "meta_rev_at_epoch": 87850,
        "meta_bstar": 0.00058156,
        "meta_mean_motion_dot": 1.771e-05,
        "meta_mean_motion_ddot": 0,
        "tle_line1": "1 33932U 93036EM  25336.45792874  .00001771  00000+0  58156-3 0  9999",
        "tle_line2": "2 33932  74.0335 334.8810 0034838  54.0990 306.3389 14.38709113878501"
      },
      "geometry": {
        "type": "Point",
        "coordinates": [
          -2.695390489543712,
          53.86378495688151
        ]
      }
    },
    {
      "type": "Feature",
      "properties": {
        "norad_id": 33933,
        "name": "COSMOS 2251 DEB",
        "group": "cosmos-2251-debris",
        "lat": 73.72577645142411,
        "lon": -179.4955169815145,
        "alt_km": 722.1497053055073,
        "timestamp": "2025-12-02T19:35:50.947580+00:00",
        "meta_object_name": "COSMOS 2251 DEB",
        "meta_object_id": "1993-036EN",
        "meta_epoch": "2025-12-02T09:07:03.959616",
        "meta_mean_motion": 14.33459632,
        "meta_eccentricity": 0.0070877,
        "meta_inclination": 74.089,
        "meta_ra_of_asc_node": 79.0165,
        "meta_arg_of_pericenter": 90.5511,
        "meta_mean_anomaly": 270.3763,
        "meta_ephemeris_type": 0,
        "meta_classification_type": "U",
        "meta_norad_cat_id": 33933,
        "meta_element_set_no": 999,
        "meta_rev_at_epoch": 87636,
        "meta_bstar": 0.00043994,
        "meta_mean_motion_dot": 1.225e-05,
        "meta_mean_motion_ddot": 0,
        "tle_line1": "1 33933U 93036EN  25336.37990694  .00001225  00000+0  43994-3 0  9999",
        "tle_line2": "2 33933  74.0890  79.0165 0070877  90.5511 270.3763 14.33459632876367"
      },
      "geometry": {
        "type": "Point",
        "coordinates": [
          -179.4955169815145,
          73.72577645142411
        ]
      }
    },
    {
      "type": "Feature",
      "properties": {
        "norad_id": 33934,
        "name": "COSMOS 2251 DEB",
        "group": "cosmos-2251-debris",
        "lat": 16.895852890557766,
        "lon": 124.46330108554635,
        "alt_km": 704.7275149267361,
        "timestamp": "2025-12-02T19:35:50.947591+00:00",
        "meta_object_name": "COSMOS 2251 DEB",
        "meta_object_id": "1993-036EP",
        "meta_epoch": "2025-12-02T11:17:18.551040",
        "meta_mean_motion": 14.5895289,
        "meta_eccentricity": 0.0016027,
        "meta_inclination": 74.0364,
        "meta_ra_of_asc_node": 120.1346,
        "meta_arg_of_pericenter": 243.6493,
        "meta_mean_anomaly": 116.3026,
        "meta_ephemeris_type": 0,
        "meta_classification_type": "U",
        "meta_norad_cat_id": 33934,
        "meta_element_set_no": 999,
        "meta_rev_at_epoch": 88589,
        "meta_bstar": 0.0012904,
        "meta_mean_motion_dot": 6.039e-05,
        "meta_mean_motion_ddot": 0,
        "tle_line1": "1 33934U 93036EP  25336.47035360  .00006039  00000+0  12904-2 0  9995",
        "tle_line2": "2 33934  74.0364 120.1346 0016027 243.6493 116.3026 14.58952890885890"
      },
      "geometry": {
        "type": "Point",
        "coordinates": [
          124.46330108554635,
          16.895852890557766
        ]
      }
    },
    {
      "type": "Feature",
      "properties": {
        "norad_id": 33936,
        "name": "COSMOS 2251 DEB",
        "group": "cosmos-2251-debris",
        "lat": -72.8168558040261,
        "lon": -55.62361830122628,
        "alt_km": 686.8149753782027,
        "timestamp": "2025-12-02T19:35:50.947601+00:00",
        "meta_object_name": "COSMOS 2251 DEB",
        "meta_object_id": "1993-036ER",
        "meta_epoch": "2025-12-02T11:49:00.817248",
        "meta_mean_motion": 14.60152217,
        "meta_eccentricity": 0.0028194,
        "meta_inclination": 74.0194,
        "meta_ra_of_asc_node": 57.0667,
        "meta_arg_of_pericenter": 214.1573,
        "meta_mean_anomaly": 145.778,
        "meta_ephemeris_type": 0,
        "meta_classification_type": "U",
        "meta_norad_cat_id": 33936,
        "meta_element_set_no": 999,
        "meta_rev_at_epoch": 88740,
        "meta_bstar": 0.0010564,
        "meta_mean_motion_dot": 5.088e-05,
        "meta_mean_motion_ddot": 0,
        "tle_line1": "1 33936U 93036ER  25336.49237057  .00005088  00000+0  10564-2 0  9999",
        "tle_line2": "2 33936  74.0194  57.0667 0028194 214.1573 145.7780 14.60152217887407"
      },
      "geometry": {
        "type": "Point",
        "coordinates": [
          -55.62361830122628,
          -72.8168558040261
        ]
      }
    },
    {
      "type": "Feature",
      "properties": {
        "norad_id": 33938,
        "name": "COSMOS 2251 DEB",
        "group": "cosmos-2251-debris",
        "lat": -53.660815769606884,
        "lon": 68.58584341062767,
        "alt_km": 739.1857325867832,
        "timestamp": "2025-12-02T19:35:50.947611+00:00",
        "meta_object_name": "COSMOS 2251 DEB",
        "meta_object_id": "1993-036ET",
        "meta_epoch": "2025-12-02T04:17:08.373696",
        "meta_mean_motion": 14.46737813,
        "meta_eccentricity": 0.00168402,
        "meta_inclination": 74.0461,
        "meta_ra_of_asc_node": 226.8923,
        "meta_arg_of_pericenter": 309.9112,
        "meta_mean_anomaly": 205.6335,
        "meta_ephemeris_type": 0,
        "meta_classification_type": "U",
        "meta_norad_cat_id": 33938,
        "meta_element_set_no": 999,
        "meta_rev_at_epoch": 88247,
        "meta_bstar": 0.00054705658,
        "meta_mean_motion_dot": 1.956e-05,
        "meta_mean_motion_ddot": 0,
        "tle_line1": "1 33938U 93036ET  25336.17856914  .00001956  00000+0  54706-3 0  9992",
        "tle_line2": "2 33938  74.0461 226.8923 0016840 309.9112 205.6335 14.46737813882473"
      },
      "geometry": {
        "type": "Point",
        "coordinates": [
          68.58584341062767,
          -53.660815769606884
        ]
      }
    }
  ]
}